[{"OBJECT_NAME":"YAOGAN-39 01B","OBJECT_ID":"2023-130B","EPOCH":"2026-03-09T22:52:09.575040","MEAN_MOTION":15.17346461,"ECCENTRICITY":0.00021598,"INCLINATION":34.9951,"RA_OF_ASC_NODE":50.5935,"ARG_OF_PERICENTER":223.3635,"MEAN_ANOMALY":136.6908,"EPHEMERIS_TYPE":0,"CLASSIFICATION_TYPE":"U","NORAD_CAT_ID":57728,"ELEMENT_SET_NO":999,"REV_AT_EPOCH":14040,"BSTAR":0.00040482695,"MEAN_MOTION_DOT":8.241e-5,"MEAN_MOTION_DDOT":0},{"OBJECT_NAME":"FLOCK 4H-13","OBJECT_ID":"2025-276BC","EPOCH":"2026-03-09T18:22:51.517056","MEAN_MOTION":15.1947635,"ECCENTRICITY":7.13e-6,"INCLINATION":97.429,"RA_OF_ASC_NODE":144.1574,"ARG_OF_PERICENTER":66.765,"MEAN_ANOMALY":293.3593,"EPHEMERIS_TYPE":0,"CLASSIFICATION_TYPE":"U","NORAD_CAT_ID":66716,"ELEMENT_SET_NO":999,"REV_AT_EPOCH":1533,"BSTAR":0.00037410092,"MEAN_MOTION_DOT":7.871e-5,"MEAN_MOTION_DDOT":0}]
